CZ-2C R/B               
1 28222U 04012C   17164.85645652  .00000200  00000-0  16344-4 0  9997
2 28222  97.5248 121.4100 0047810 195.3577 192.2986 15.09234057720078
SL-16 R/B               
1 28353U 04021B   17164.25815086  .00000180  00000-0  11945-3 0  9994
2 28353  71.0008  86.7062 0006353 220.5064 139.5586 14.14192527671595
CZ-2C R/B               
1 28480U 04046B   17164.75113028  .00000033  00000-0  28397-4 0  9991
2 28480  98.1958 261.1628 0141010 234.3954 278.9463 14.25639815653723
ARIANE 5 R/B            
1 28499U 04049H   17164.81379765  .00000060  00000-0  15043-4 0  9997
2 28499  98.0786 247.8125 0091461 225.9230 239.0448 14.79817475673453
CZ-2D R/B               
1 28738U 05024B   17164.95563882  .00000360  00000-0  25235-4 0  9994
2 28738  97.4968 201.8998 0012760  23.3831 336.7977 15.11143984655304
SUZAKU (ASTRO-EII)      
1 28773U 05025A   17164.83448042  .00001059  00000-0  49607-4 0  9996
2 28773  31.3837 318.1752 0004939 312.2481  47.7747 15.15813171656867
ALOS (DAICHI)           
1 28931U 06002A   17164.99064769  .00000129  00000-0  34135-4 0  9992
2 28931  97.8437 192.5074 0001440  50.1938 309.9395 14.62359602606992
H-2A R/B                
1 28932U 06002B   17164.72645352  .00000470  00000-0  50202-4 0  9999
2 28932  98.2072  87.4747 0089233 323.6815  66.5518 14.91371048617186
AKARI (ASTRO-F)         
1 28939U 06005A   17164.90071433  .00003199  00000-0  10019-3 0  9994
2 28939  98.2530   5.7210 0106490 197.1492 162.6137 15.28618545612592
RESURS-DK 1             
1 29228U 06021A   17164.91145726  .00000084  00000-0  13760-4 0  9999
2 29228  69.9356 106.4130 0006150 317.3502  42.7180 15.02159883607604
GENESIS 1               
1 29252U 06029A   17164.80420883  .00000186  00000-0  19691-4 0  9994
2 29252  64.5052 296.5607 0014545 315.5502 123.2213 15.16776598601230
CZ-4B R/B               
1 29507U 06046C   17164.93527523 -.00000356  00000-0 -22920-4 0  9999
2 29507  97.7862 172.4937 0043421 250.5367 109.1162 15.00070478580509
CZ-2C R/B               
1 31114U 07010B   17164.95519381 -.00000004  00000-0  17244-4 0  9995
2 31114  98.3991  67.6035 0058859 224.2872 135.3588 14.19243506527046
COSMO-SKYMED 1          
1 31598U 07023A   17164.93301587 -.00000137  00000-0 -10630-4 0  9990
2 31598  97.8831 348.6879 0001274  84.3817 275.7554 14.82158319541966
GENESIS 2               
1 31789U 07028A   17164.89913264  .00000419  00000-0  32061-4 0  9996
2 31789  64.5041 334.1801 0029940 223.0658 136.8121 15.16049682548416
COSMOS 2428             
1 31792U 07029A   17164.94538891  .00000185  00000-0  12684-3 0  9994
2 31792  70.9170  58.9120 0011087 271.6200  88.3650 14.12271902513523
SL-16 R/B               
1 31793U 07029B   17164.54590953  .00000293  00000-0  17793-3 0  9994
2 31793  70.9764  36.8128 0001750 255.8647 153.9371 14.14382765514163
KORONAS-FOTON           
1 33504U 09003A   17164.66714716  .00000736  00000-0  37674-4 0  9991
2 33504  82.4437 236.4763 0020909 120.1249 240.2059 15.14828009460847
TIANGONG 1              
1 37820U 11053A   17164.89482639  .00017447  00000-0  98349-4 0  9998
2 37820  42.7588 220.1545 0017610  51.0708 298.9896 15.78648036327440
CZ-3B R/B               
1 38253U 12018D   17164.52121873  .00594287  53647-5  18388-3 0  9997
2 38253  54.8484 199.3195 1396012 264.5110  79.5520 13.15220926127812
H-2A R/B                
1 38341U 12025E   17164.59674725  .00000203  00000-0  31438-4 0  9991
2 38341  98.4342 241.4186 0056292 168.6632 191.5863 14.83574291274340
CUSAT 2 & FALCON 9 R/B  
1 39271U 13055G   17164.84155328  .00005812  00000-0  15078-3 0  9991
2 39271  80.9684   0.6734 0633099 212.1180 143.9938 14.37082564192148
ALOS-2                  
1 39766U 14029A   17164.80095531  .00000146  00000-0  26423-4 0  9999
2 39766  97.9221 262.1724 0001576  81.2640 278.8746 14.79472220165100
ASTRO-H (HITOMI)        
1 41337U 16012A   17164.92567832  .00000287  00000-0  16545-4 0  9991
2 41337  31.0047 139.4665 0012442   8.2152 351.8685 14.98308059 72439
TIANGONG-2              
1 41765U 16057A   17164.78617569  .00002020  00000-0  27574-4 0  9993
2 41765  42.7834  14.9926 0011032 309.4427 162.4605 15.61283294 42450
